IRIDIUM 136             
1 42962U 17061H   23293.42460371  .00000044  00000+0  86662-5 0  9994
2 42962  86.3943  70.9359 0002082  86.3615 273.7818 14.34220091315698
